{
    "links": {
        "self": "http://www.neowsapp.com/rest/v1/neo/3467315?api_key=iIulBulltgU6a56xZRHN4H3l9WmuAYTsLGpBGhQ2"
    },
    "id": "3467315",
    "neo_reference_id": "3467315",
    "name": "(2009 SD15)",
    "designation": "2009 SD15",
    "nasa_jpl_url": "http://ssd.jpl.nasa.gov/sbdb.cgi?sstr=3467315",
    "absolute_magnitude_h": 26.9,
    "estimated_diameter": {
        "kilometers": {
            "estimated_diameter_min": 0.0110803882,
            "estimated_diameter_max": 0.0247765013
        },
        "meters": {
            "estimated_diameter_min": 11.0803882126,
            "estimated_diameter_max": 24.7765012606
        },
        "miles": {
            "estimated_diameter_min": 0.0068850319,
            "estimated_diameter_max": 0.0153953994
        },
        "feet": {
            "estimated_diameter_min": 36.3529808636,
            "estimated_diameter_max": 81.2877363957
        }
    },
    "is_potentially_hazardous_asteroid": false,
    "close_approach_data": [
        {
            "close_approach_date": "2009-09-13",
            "close_approach_date_full": "2009-Sep-13 19:38",
            "epoch_date_close_approach": 1252870680000,
            "relative_velocity": {
                "kilometers_per_second": "14.0040133894",
                "kilometers_per_hour": "50414.4482019408",
                "miles_per_hour": "31325.5775508115"
            },
            "miss_distance": {
                "astronomical": "0.0181630177",
                "lunar": "7.0654138853",
                "kilometers": "2717148.760692299",
                "miles": "1688357.9496957662"
            },
            "orbiting_body": "Earth"
        }
    ],
    "orbital_data": {
        "orbit_id": "7",
        "orbit_determination_date": "2017-04-06 08:59:55",
        "first_observation_date": "2009-09-19",
        "last_observation_date": "2009-09-25",
        "data_arc_in_days": 6,
        "observations_used": 15,
        "orbit_uncertainty": "8",
        "minimum_orbit_intersection": ".00705874",
        "jupiter_tisserand_invariant": "3.273",
        "epoch_osculation": "2455094.5",
        "eccentricity": ".624779941013855",
        "semi_major_axis": "2.335150978875199",
        "inclination": "2.893476673260053",
        "ascending_node_longitude": "357.051639007759",
        "orbital_period": "1303.3794654323",
        "perihelion_distance": ".8761954880351063",
        "perihelion_argument": "303.4749702614848",
        "aphelion_distance": "3.794106469715291",
        "perihelion_time": "2455052.522560540417",
        "mean_anomaly": "11.59438107338727",
        "mean_motion": ".2762050573511195",
        "equinox": "J2000",
        "orbit_class": {
            "orbit_class_type": "APO",
            "orbit_class_description": "Near-Earth asteroid orbits which cross the Earth’s orbit similar to that of 1862 Apollo",
            "orbit_class_range": "a (semi-major axis) > 1.0 AU; q (perihelion) < 1.017 AU"
        }
    },
    "is_sentry_object": false
}